{"type": "FeatureCollection", "features": [ {"type": "Feature", "properties": {"norad_id": 66666, "name": "FORMOSAT-8A", "group": "last-30-days", "lat": 82.00246593852147, "lon": -39.58675835482663, "alt_km": 559.0682417027474, "timestamp": "2025-12-21T07:34:33.300790+00:00", "meta": {"OBJECT_NAME": "FORMOSAT-8A", "OBJECT_ID": "2025-276A", "EPOCH": "2025-12-20T03:57:17.729856", "MEAN_MOTION": 15.00328968, "ECCENTRICITY": 0.00036632, "INCLINATION": 97.6583, "RA_OF_ASC_NODE": 66.001, "ARG_OF_PERICENTER": 201.3958, "MEAN_ANOMALY": 158.7113, "EPHEMERIS_TYPE": 0, "CLASSIFICATION_TYPE": "U", "NORAD_CAT_ID": 66666, "ELEMENT_SET_NO": 999, "REV_AT_EPOCH": 320, "BSTAR": 0.00026516383, "MEAN_MOTION_DOT": 3.267e-05, "MEAN_MOTION_DDOT": 0}, "tle": {"line1": "1 66666U 25276A   25354.16478854  .00003267  00000+0  26516-3 0  9994", "line2": "2 66666  97.6583  66.0010 0003663 201.3958 158.7113 15.00328968  3202"}}, "geometry": {"type": "Point", "coordinates": [-39.58675835482663, 82.00246593852147]}}, {"type": "Feature", "properties": {"norad_id": 66667, "name": "PELICAN-5", "group": "last-30-days", "lat": 42.655252440706924, "lon": 60.02520865484465, "alt_km": 511.02358912886666, "timestamp": "2025-12-21T07:34:33.300799+00:00", "meta": {"OBJECT_NAME": "PELICAN-5", "OBJECT_ID": "2025-276B", "EPOCH": "2025-12-20T15:33:42.794208", "MEAN_MOTION": 15.17584497, "ECCENTRICITY": 0.00019544, "INCLINATION": 97.4422, "RA_OF_ASC_NODE": 66.2866, "ARG_OF_PERICENTER": 224.7172, "MEAN_ANOMALY": 135.3904, "EPHEMERIS_TYPE": 0, "CLASSIFICATION_TYPE": "U", "NORAD_CAT_ID": 66667, "ELEMENT_SET_NO": 999, "REV_AT_EPOCH": 332, "BSTAR": 0.00024254021, "MEAN_MOTION_DOT": 4.806e-05, "MEAN_MOTION_DDOT": 0}, "tle": {"line1": "1 66667U 25276B   25354.64841197  .00004806  00000+0  24254-3 0  9999", "line2": "2 66667  97.4422  66.2866 0001954 224.7172 135.3904 15.17584497  3323"}}, "geometry": {"type": "Point", "coordinates": [60.02520865484465, 42.655252440706924]}}, {"type": "Feature", "properties": {"norad_id": 66668, "name": "TRANSPORTER-15 C", "group": "last-30-days", "lat": -33.5816187075054, "lon": 71.84041208245829, "alt_km": 517.715244811403, "timestamp": "2025-12-21T07:34:33.300809+00:00", "meta": {"OBJECT_NAME": "TRANSPORTER-15 C", "OBJECT_ID": "2025-276C", "EPOCH": "2025-12-20T22:13:37.384896", "MEAN_MOTION": 15.1707915, "ECCENTRICITY": 0.00076649, "INCLINATION": 97.4287, "RA_OF_ASC_NODE": 66.4889, "ARG_OF_PERICENTER": 274.4536, "MEAN_ANOMALY": 85.5822, "EPHEMERIS_TYPE": 0, "CLASSIFICATION_TYPE": "U", "NORAD_CAT_ID": 66668, "ELEMENT_SET_NO": 999, "REV_AT_EPOCH": 336, "BSTAR": 0.00069124984, "MEAN_MOTION_DOT": 0.00013648, "MEAN_MOTION_DDOT": 0}, "tle": {"line1": "1 66668U 25276C   25354.92612714  .00013648  00000+0  69125-3 0  9992", "line2": "2 66668  97.4287  66.4889 0007664 274.4536  85.5822 15.17079150  3364"}}, "geometry": {"type": "Point", "coordinates": [71.84041208245829, -33.5816187075054]}}, {"type": "Feature", "properties": {"norad_id": 66669, "name": "TRANSPORTER-15 D", "group": "last-30-days", "lat": 53.81058441103997, "lon": 56.63525074303321, "alt_km": 459.88764878011716, "timestamp": "2025-12-21T07:34:33.300818+00:00", "meta": {"OBJECT_NAME": "TRANSPORTER-15 D", "OBJECT_ID": "2025-276D", "EPOCH": "2025-12-20T03:08:59.510112", "MEAN_MOTION": 15.25643349, "ECCENTRICITY": 0.00483079, "INCLINATION": 97.4323, "RA_OF_ASC_NODE": 65.7247, "ARG_OF_PERICENTER": 228.3761, "MEAN_ANOMALY": 131.3335, "EPHEMERIS_TYPE": 0, "CLASSIFICATION_TYPE": "U", "NORAD_CAT_ID": 66669, "ELEMENT_SET_NO": 999, "REV_AT_EPOCH": 324, "BSTAR": 0.21715082, "MEAN_MOTION_DOT": 0.06545393, "MEAN_MOTION_DDOT": 0}, "tle": {"line1": "1 66669U 25276D   25354.13124433  .06545393  00000+0  21715+0 0  9994", "line2": "2 66669  97.4323  65.7247 0048307 228.3761 131.3335 15.25643349  3245"}}, "geometry": {"type": "Point", "coordinates": [56.63525074303321, 53.81058441103997]}}, {"type": "Feature", "properties": {"norad_id": 66670, "name": "TRANSPORTER-15 E", "group": "last-30-days", "lat": -27.031374082846312, "lon": 70.69898948510391, "alt_km": 517.4771609843892, "timestamp": "2025-12-21T07:34:33.300827+00:00", "meta": {"OBJECT_NAME": "TRANSPORTER-15 E", "OBJECT_ID": "2025-276E", "EPOCH": "2025-12-20T15:51:59.787360", "MEAN_MOTION": 15.17139026, "ECCENTRICITY": 0.00071025, "INCLINATION": 97.4309, "RA_OF_ASC_NODE": 66.2389, "ARG_OF_PERICENTER": 279.778, "MEAN_ANOMALY": 80.2651, "EPHEMERIS_TYPE": 0, "CLASSIFICATION_TYPE": "U", "NORAD_CAT_ID": 66670, "ELEMENT_SET_NO": 999, "REV_AT_EPOCH": 332, "BSTAR": 0.00070103605, "MEAN_MOTION_DOT": 0.00013864, "MEAN_MOTION_DDOT": 0}, "tle": {"line1": "1 66670U 25276E   25354.66110865  .00013864  00000+0  70104-3 0  9995", "line2": "2 66670  97.4309  66.2389 0007102 279.7780  80.2651 15.17139026  3328"}}, "geometry": {"type": "Point", "coordinates": [70.69898948510391, -27.031374082846312]}}, {"type": "Feature", "properties": {"norad_id": 66671, "name": "TRANSPORTER-15 F", "group": "last-30-days", "lat": -15.271607958485532, "lon": 68.96382657469695, "alt_km": 519.2783752284222, "timestamp": "2025-12-21T07:34:33.300840+00:00", "meta": {"OBJECT_NAME": "TRANSPORTER-15 F", "OBJECT_ID": "2025-276F", "EPOCH": "2025-12-20T15:48:48.812256", "MEAN_MOTION": 15.17059148, "ECCENTRICITY": 0.00049931, "INCLINATION": 97.4432, "RA_OF_ASC_NODE": 66.2732, "ARG_OF_PERICENTER": 261.2585, "MEAN_ANOMALY": 98.8083, "EPHEMERIS_TYPE": 0, "CLASSIFICATION_TYPE": "U", "NORAD_CAT_ID": 66671, "ELEMENT_SET_NO": 999, "REV_AT_EPOCH": 332, "BSTAR": 0.00042113504, "MEAN_MOTION_DOT": 8.274e-05, "MEAN_MOTION_DDOT": 0}, "tle": {"line1": "1 66671U 25276F   25354.65889829  .00008274  00000+0  42114-3 0  9997", "line2": "2 66671  97.4432  66.2732 0004993 261.2585  98.8083 15.17059148  3322"}}, "geometry": {"type": "Point", "coordinates": [68.96382657469695, -15.271607958485532]}}, {"type": "Feature", "properties": {"norad_id": 66672, "name": "TRANSPORTER-15 G", "group": "last-30-days", "lat": -38.58612164727707, "lon": 72.88574898439083, "alt_km": 520.9634864132349, "timestamp": "2025-12-21T07:34:33.300851+00:00", "meta": {"OBJECT_NAME": "TRANSPORTER-15 G", "OBJECT_ID": "2025-276G", "EPOCH": "2025-12-20T22:14:47.537376", "MEAN_MOTION": 15.16610454, "ECCENTRICITY": 0.00053171, "INCLINATION": 97.4402, "RA_OF_ASC_NODE": 66.5193, "ARG_OF_PERICENTER": 258.7365, "MEAN_ANOMALY": 101.327, "EPHEMERIS_TYPE": 0, "CLASSIFICATION_TYPE": "U", "NORAD_CAT_ID": 66672, "ELEMENT_SET_NO": 999, "REV_AT_EPOCH": 336, "BSTAR": 0.00038837072, "MEAN_MOTION_DOT": 7.528e-05, "MEAN_MOTION_DDOT": 0}, "tle": {"line1": "1 66672U 25276G   25354.92693909  .00007528  00000+0  38837-3 0  9998", "line2": "2 66672  97.4402  66.5193 0005317 258.7365 101.3270 15.16610454  3366"}}, "geometry": {"type": "Point", "coordinates": [72.88574898439083, -38.58612164727707]}}, {"type": "Feature", "properties": {"norad_id": 66673, "name": "TRANSPORTER-15 H", "group": "last-30-days", "lat": -20.66839384120884, "lon": 69.72322557416864, "alt_km": 518.2369570469673, "timestamp": "2025-12-21T07:34:33.300860+00:00", "meta": {"OBJECT_NAME": "TRANSPORTER-15 H", "OBJECT_ID": "2025-276H", "EPOCH": "2025-12-20T22:10:10.446528", "MEAN_MOTION": 15.17067468, "ECCENTRICITY": 0.00057838, "INCLINATION": 97.4371, "RA_OF_ASC_NODE": 66.5141, "ARG_OF_PERICENTER": 277.186, "MEAN_ANOMALY": 82.8716, "EPHEMERIS_TYPE": 0, "CLASSIFICATION_TYPE": "U", "NORAD_CAT_ID": 66673, "ELEMENT_SET_NO": 999, "REV_AT_EPOCH": 336, "BSTAR": 0.00035791298, "MEAN_MOTION_DOT": 7.024e-05, "MEAN_MOTION_DDOT": 0}, "tle": {"line1": "1 66673U 25276H   25354.92373202  .00007024  00000+0  35791-3 0  9997", "line2": "2 66673  97.4371  66.5141 0005783 277.1860  82.8716 15.17067468  3367"}}, "geometry": {"type": "Point", "coordinates": [69.72322557416864, -20.66839384120884]}}, {"type": "Feature", "properties": {"norad_id": 66674, "name": "TRANSPORTER-15 J", "group": "last-30-days", "lat": -29.759887513657837, "lon": 71.18287623927874, "alt_km": 520.4609844163642, "timestamp": "2025-12-21T07:34:33.300869+00:00", "meta": {"OBJECT_NAME": "TRANSPORTER-15 J", "OBJECT_ID": "2025-276J", "EPOCH": "2025-12-20T15:52:27.796512", "MEAN_MOTION": 15.16718847, "ECCENTRICITY": 0.00049193, "INCLINATION": 97.4381, "RA_OF_ASC_NODE": 66.2572, "ARG_OF_PERICENTER": 264.8158, "MEAN_ANOMALY": 95.2514, "EPHEMERIS_TYPE": 0, "CLASSIFICATION_TYPE": "U", "NORAD_CAT_ID": 66674, "ELEMENT_SET_NO": 999, "REV_AT_EPOCH": 332, "BSTAR": 0.00025674243, "MEAN_MOTION_DOT": 4.968e-05, "MEAN_MOTION_DDOT": 0}, "tle": {"line1": "1 66674U 25276J   25354.66143283  .00004968  00000+0  25674-3 0  9996", "line2": "2 66674  97.4381  66.2572 0004919 264.8158  95.2514 15.16718847  3320"}}, "geometry": {"type": "Point", "coordinates": [71.18287623927874, -29.759887513657837]}}, {"type": "Feature", "properties": {"norad_id": 66675, "name": "TRANSPORTER-15 K", "group": "last-30-days", "lat": -20.125063787725033, "lon": 69.65132104322313, "alt_km": 519.3017518468941, "timestamp": "2025-12-21T07:34:33.300878+00:00", "meta": {"OBJECT_NAME": "TRANSPORTER-15 K", "OBJECT_ID": "2025-276K", "EPOCH": "2025-12-20T15:50:02.775840", "MEAN_MOTION": 15.16963926, "ECCENTRICITY": 0.00049572, "INCLINATION": 97.4398, "RA_OF_ASC_NODE": 66.2629, "ARG_OF_PERICENTER": 268.6144, "MEAN_ANOMALY": 91.4522, "EPHEMERIS_TYPE": 0, "CLASSIFICATION_TYPE": "U", "NORAD_CAT_ID": 66675, "ELEMENT_SET_NO": 999, "REV_AT_EPOCH": 332, "BSTAR": 0.000378022, "MEAN_MOTION_DOT": 7.399e-05, "MEAN_MOTION_DDOT": 0}, "tle": {"line1": "1 66675U 25276K   25354.65975435  .00007399  00000+0  37802-3 0  9995", "line2": "2 66675  97.4398  66.2629 0004957 268.6144  91.4522 15.16963926  3328"}}, "geometry": {"type": "Point", "coordinates": [69.65132104322313, -20.125063787725033]}}]}